[{"OBJECT_NAME":"NUSAT-49 (KLARA DAN VON NEUMANN)","OBJECT_ID":"2024-149AJ","EPOCH":"2026-03-09T19:09:16.004160","MEAN_MOTION":15.30828857,"ECCENTRICITY":0.00011321,"INCLINATION":97.3807,"RA_OF_ASC_NODE":150.738,"ARG_OF_PERICENTER":286.7761,"MEAN_ANOMALY":73.3356,"EPHEMERIS_TYPE":0,"CLASSIFICATION_TYPE":"U","NORAD_CAT_ID":60500,"ELEMENT_SET_NO":999,"REV_AT_EPOCH":8693,"BSTAR":0.00043568345,"MEAN_MOTION_DOT":0.00012912,"MEAN_MOTION_DDOT":0},{"OBJECT_NAME":"STARLINK-31994","OBJECT_ID":"2024-150F","EPOCH":"2026-03-09T22:39:37.579680","MEAN_MOTION":15.30190936,"ECCENTRICITY":0.00010211,"INCLINATION":53.1575,"RA_OF_ASC_NODE":305.607,"ARG_OF_PERICENTER":82.0753,"MEAN_ANOMALY":278.0364,"EPHEMERIS_TYPE":0,"CLASSIFICATION_TYPE":"U","NORAD_CAT_ID":60588,"ELEMENT_SET_NO":999,"REV_AT_EPOCH":8800,"BSTAR":0.00011020277,"MEAN_MOTION_DOT":2.905e-5,"MEAN_MOTION_DDOT":0}]
